{"type":"FeatureCollection","features":[{"type":"Feature","geometry":{"type":"Polygon","coordinates":[[[6.1197,46.2608],[6.1181,46.2634],[6.12,46.2648],[6.1162,46.2663],[6.111,46.2619],[6.1092,46.2633],[6.1019,46.2616],[6.0966,46.2573],[6.0977,46.2554],[6.0944,46.2556],[6.0972,46.2524],[6.0959,46.2519],[6.0951,46.2482],[6.0928,46.2477],[6.0914,46.2494],[6.0881,46.248],[6.0882,46.2463],[6.1015,46.2376],[6.1069,46.2412],[6.1088,46.2399],[6.1245,46.2513],[6.1245,46.2526],[6.1209,46.2544],[6.1228,46.2564],[6.1215,46.2577],[6.1225,46.2582],[6.1197,46.2608]]]},"properties":{"COMMUNE":"Ferney-Voltaire","CANTON_DEPARTEMENT":"Ain"}},{"type":"Feature","geometry":{"type":"Polygon","coordinates":[[[5.9395,46.1982],[5.9368,46.1988],[5.9405,46.2043],[5.9369,46.2072],[5.9374,46.2085],[5.936,46.2088],[5.9356,46.2114],[5.929,46.2141],[5.9231,46.2148],[5.9043,46.2234],[5.8925,46.2105],[5.8878,46.2027],[5.88,46.1942],[5.8769,46.1916],[5.869,46.1897],[5.8637,46.185],[5.8674,46.1819],[5.8739,46.1847],[5.8916,46.181],[5.909,46.1745],[5.9118,46.1749],[5.9144,46.1734],[5.915,46.1714],[5.9182,46.172],[5.9217,46.1707],[5.9208,46.1683],[5.9245,46.1677],[5.9297,46.1694],[5.9321,46.1679],[5.9369,46.1679],[5.9409,46.1645],[5.943,46.1659],[5.9448,46.1645],[5.949,46.165],[5.9505,46.1632],[5.9531,46.1637],[5.9566,46.1666],[5.9575,46.1706],[5.9547,46.1729],[5.9537,46.1761],[5.9545,46.1772],[5.9535,46.1778],[5.9583,46.1827],[5.9577,46.1868],[5.9625,46.1932],[5.9645,46.1981],[5.9554,46.1993],[5.9491,46.2018],[5.9473,46.2],[5.9439,46.2001],[5.9395,46.1982]]]},"properties":{"COMMUNE":"Péron","CANTON_DEPARTEMENT":"Ain"}},{"type":"Feature","geometry":{"type":"Polygon","coordinates":[[[5.9688,46.2169],[5.9626,46.2198],[5.9583,46.225],[5.9203,46.239],[5.9185,46.2357],[5.9043,46.2234],[5.9231,46.2148],[5.929,46.2141],[5.9356,46.2114],[5.936,46.2088],[5.9374,46.2085],[5.9369,46.2072],[5.9405,46.2043],[5.9368,46.1988],[5.9402,46.198],[5.9439,46.2001],[5.9473,46.2],[5.9491,46.2018],[5.9554,46.1993],[5.9643,46.198],[5.9734,46.2025],[5.9693,46.2067],[5.9746,46.215],[5.9688,46.2169]]]},"properties":{"COMMUNE":"Saint-Jean-de-Gonville","CANTON_DEPARTEMENT":"Ain"}},{"type":"Feature","geometry":{"type":"Polygon","coordinates":[[[6.0277,46.2619],[6.0215,46.2621],[6.0197,46.2593],[6.0168,46.2585],[6.0126,46.2607],[6.0106,46.2594],[6.0094,46.2616],[6.007,46.2625],[6.0056,46.2615],[5.9635,46.2841],[5.958,46.2854],[5.9466,46.2746],[5.9906,46.2566],[5.9895,46.255],[5.9925,46.254],[5.9925,46.2524],[5.9953,46.2496],[6.0002,46.2474],[6.0113,46.2375],[6.0141,46.2393],[6.012,46.2404],[6.0146,46.2433],[6.0144,46.2452],[6.0196,46.2489],[6.0198,46.2504],[6.0212,46.2498],[6.0252,46.2532],[6.0277,46.2619]]]},"properties":{"COMMUNE":"Sergy","CANTON_DEPARTEMENT":"Ain"}},{"type":"Feature","geometry":{"type":"Polygon","coordinates":[[[6.0605,46.2701],[6.0565,46.2719],[6.0533,46.2712],[6.0521,46.2694],[6.0503,46.2698],[6.0511,46.2711],[6.0497,46.272],[6.0484,46.2706],[6.0482,46.2721],[6.0438,46.271],[6.0353,46.2747],[6.0358,46.2767],[6.0314,46.2797],[6.0288,46.278],[6.0274,46.2738],[6.0291,46.2681],[6.0252,46.2532],[6.0171,46.2479],[6.012,46.2406],[6.0158,46.2379],[6.0175,46.2329],[6.0164,46.232],[6.0255,46.2332],[6.0337,46.2386],[6.0421,46.2333],[6.048,46.2411],[6.0417,46.2484],[6.052,46.2537],[6.0563,46.254],[6.0554,46.2546],[6.0558,46.2579],[6.0615,46.2624],[6.0556,46.2637],[6.0605,46.2701]]]},"properties":{"COMMUNE":"Saint-Genis-Pouilly","CANTON_DEPARTEMENT":"Ain"}},{"type":"Feature","geometry":{"type":"Polygon","coordinates":[[[6.1379,46.3333],[6.1152,46.344],[6.1111,46.3477],[6.0969,46.3426],[6.0943,46.3406],[6.0899,46.3333],[6.0952,46.3271],[6.1001,46.3264],[6.1168,46.3159],[6.1237,46.3176],[6.1267,46.317],[6.1253,46.3193],[6.1315,46.3241],[6.1339,46.3281],[6.1361,46.3285],[6.1352,46.3294],[6.1371,46.3307],[6.1362,46.3321],[6.1379,46.3333]]]},"properties":{"COMMUNE":"Grilly","CANTON_DEPARTEMENT":"Ain"}},{"type":"Feature","geometry":{"type":"Polygon","coordinates":[[[5.9414,46.3094],[5.9357,46.3097],[5.926,46.3138],[5.9235,46.3117],[5.9218,46.3124],[5.9178,46.3089],[5.9172,46.3076],[5.9202,46.3069],[5.9145,46.2942],[5.9165,46.2938],[5.9162,46.2929],[5.9086,46.2824],[5.9076,46.2829],[5.9041,46.2801],[5.9027,46.2805],[5.8986,46.2752],[5.8984,46.2712],[5.8922,46.2644],[5.9001,46.2605],[5.9042,46.2645],[5.9075,46.2633],[5.9051,46.2604],[5.9123,46.2593],[5.9162,46.2574],[5.9183,46.2583],[5.9204,46.2622],[5.936,46.2678],[5.9479,46.2754],[5.957,46.2843],[5.9626,46.2922],[5.9558,46.2979],[5.957,46.3019],[5.9529,46.3041],[5.9545,46.306],[5.9414,46.3094]]]},"properties":{"COMMUNE":"Lélex","CANTON_DEPARTEMENT":"Ain"}},{"type":"Feature","geometry":{"type":"Polygon","coordinates":[[[6.0547,46.3158],[6.0465,46.3179],[6.0469,46.3188],[6.0191,46.3286],[6.0086,46.3256],[6.0012,46.3268],[5.9998,46.3326],[6.0012,46.3356],[5.9917,46.338],[5.988,46.3404],[5.9909,46.3451],[5.986,46.3488],[5.974,46.3308],[5.9706,46.3278],[5.9748,46.3255],[5.9738,46.3228],[5.9821,46.3188],[5.9859,46.3147],[5.9905,46.3173],[5.9944,46.3148],[5.9962,46.3171],[6.0014,46.3138],[6.0045,46.3145],[6.0249,46.3046],[6.0286,46.2989],[6.035,46.2955],[6.0379,46.2952],[6.0386,46.2966],[6.0477,46.2909],[6.0488,46.2936],[6.0562,46.2906],[6.0655,46.3],[6.0646,46.3029],[6.0655,46.3064],[6.0628,46.3074],[6.0614,46.3059],[6.06,46.3065],[6.0583,46.31],[6.0596,46.3127],[6.0547,46.3158]]]},"properties":{"COMMUNE":"Échenevex","CANTON_DEPARTEMENT":"Ain"}},{"type":"Feature","geometry":{"type":"Polygon","coordinates":[[[6.0758,46.2831],[6.0677,46.2873],[6.0639,46.2807],[6.0656,46.2789],[6.0641,46.2746],[6.0556,46.2637],[6.0615,46.2624],[6.0558,46.2579],[6.0554,46.2546],[6.0563,46.254],[6.052,46.2537],[6.0417,46.2484],[6.048,46.2411],[6.0417,46.2335],[6.0461,46.2314],[6.0534,46.2395],[6.0604,46.245],[6.0633,46.2458],[6.0673,46.2418],[6.073,46.2413],[6.0735,46.2437],[6.0825,46.2454],[6.0844,46.247],[6.0855,46.246],[6.0914,46.2494],[6.0928,46.2477],[6.0951,46.2482],[6.0959,46.2519],[6.0972,46.2524],[6.0944,46.2556],[6.0977,46.2554],[6.0966,46.2573],[6.1027,46.2617],[6.0909,46.2736],[6.0891,46.2697],[6.0828,46.2727],[6.0812,46.2715],[6.076,46.2733],[6.076,46.2782],[6.077,46.2788],[6.0752,46.2812],[6.0758,46.2831]]]},"properties":{"COMMUNE":"Prévessin-Moëns","CANTON_DEPARTEMENT":"Ain"}},{"type":"Feature","geometry":{"type":"Polygon","coordinates":[[[6.2301,46.2035],[6.2219,46.2007],[6.2221,46.1988],[6.2173,46.1979],[6.216,46.195],[6.2139,46.1938],[6.2166,46.1923],[6.219,46.1931],[6.2196,46.1917],[6.2161,46.1879],[6.2255,46.1901],[6.2244,46.1928],[6.2285,46.1938],[6.234,46.1979],[6.2301,46.2035]]]},"properties":{"COMMUNE":"Ambilly","CANTON_DEPARTEMENT":"Haute-Savoie"}},{"type":"Feature","geometry":{"type":"Polygon","coordinates":[[[6.2446,46.1688],[6.244,46.17],[6.2254,46.1728],[6.2141,46.1669],[6.2129,46.1693],[6.2113,46.169],[6.1937,46.1584],[6.1904,46.1543],[6.1934,46.1521],[6.1883,46.1476],[6.1839,46.1401],[6.1933,46.1344],[6.2094,46.1337],[6.2149,46.1324],[6.2179,46.1348],[6.2197,46.1393],[6.2231,46.1424],[6.2234,46.1468],[6.2249,46.1489],[6.2306,46.1536],[6.2305,46.1584],[6.2342,46.1602],[6.2393,46.16],[6.2446,46.1688]]]},"properties":{"COMMUNE":"Monnetier-Mornex","CANTON_DEPARTEMENT":"Haute-Savoie"}},{"type":"Feature","geometry":{"type":"Polygon","coordinates":[[[6.0586,46.2929],[6.0562,46.2906],[6.0488,46.2936],[6.0477,46.2909],[6.0386,46.2966],[6.0379,46.2952],[6.035,46.2955],[6.0284,46.2986],[6.0313,46.2901],[6.0311,46.2866],[6.0329,46.2841],[6.0314,46.2797],[6.0358,46.2767],[6.035,46.2749],[6.0438,46.271],[6.0482,46.2721],[6.0484,46.2706],[6.0497,46.272],[6.0511,46.2711],[6.0507,46.2696],[6.0565,46.2719],[6.0605,46.2701],[6.0653,46.2776],[6.0639,46.2807],[6.0664,46.2844],[6.0589,46.2879],[6.0588,46.289],[6.0621,46.2905],[6.0604,46.291],[6.0613,46.2924],[6.0586,46.2929]]]},"properties":{"COMMUNE":"Chevry","CANTON_DEPARTEMENT":"Ain"}},{"type":"Feature","geometry":{"type":"Polygon","coordinates":[[[6.0966,46.2887],[6.0903,46.2914],[6.0878,46.2941],[6.082,46.2889],[6.0786,46.2874],[6.0751,46.2817],[6.077,46.2788],[6.076,46.2782],[6.076,46.2733],[6.0812,46.2715],[6.0828,46.2727],[6.0891,46.2697],[6.0909,46.2736],[6.1027,46.2617],[6.1092,46.2633],[6.111,46.2619],[6.1154,46.2651],[6.1099,46.2706],[6.1135,46.2726],[6.1033,46.2787],[6.1047,46.2838],[6.0966,46.2887]]]},"properties":{"COMMUNE":"Ornex","CANTON_DEPARTEMENT":"Ain"}},{"type":"Feature","geometry":{"type":"Polygon","coordinates":[[[6.2139,46.1939],[6.2052,46.1918],[6.2049,46.1898],[6.2027,46.1891],[6.198,46.1835],[6.195,46.1842],[6.1912,46.1813],[6.1885,46.1816],[6.189,46.1807],[6.1871,46.1804],[6.1874,46.1786],[6.1862,46.1783],[6.1911,46.1739],[6.196,46.1752],[6.2024,46.1742],[6.2183,46.1747],[6.2215,46.1779],[6.2212,46.1817],[6.224,46.1856],[6.2161,46.1879],[6.2196,46.1917],[6.219,46.1931],[6.2166,46.1923],[6.2139,46.1939]]]},"properties":{"COMMUNE":"Gaillard","CANTON_DEPARTEMENT":"Haute-Savoie"}},{"type":"Feature","geometry":{"type":"Polygon","coordinates":[[[6.0959,46.313],[6.0943,46.3135],[6.0856,46.3103],[6.081,46.3071],[6.0797,46.3047],[6.0842,46.3013],[6.0855,46.2958],[6.0892,46.2922],[6.0954,46.2899],[6.1024,46.2849],[6.1116,46.2915],[6.1141,46.2947],[6.1196,46.2943],[6.1186,46.2959],[6.1209,46.297],[6.12,46.2981],[6.1218,46.2991],[6.1188,46.3028],[6.12,46.3037],[6.1194,46.3056],[6.1205,46.3075],[6.115,46.3087],[6.1125,46.3068],[6.1081,46.3076],[6.1044,46.3061],[6.0959,46.313]]]},"properties":{"COMMUNE":"Versonnex","CANTON_DEPARTEMENT":"Ain"}},{"type":"Feature","geometry":{"type":"Polygon","coordinates":[[[6.0277,46.2619],[6.029,46.2707],[6.0279,46.2715],[6.0275,46.2759],[6.0321,46.2801],[6.0329,46.2841],[6.0311,46.2866],[6.0318,46.2872],[6.0292,46.2942],[6.0289,46.2995],[6.0254,46.3026],[6.0252,46.3044],[6.0045,46.3145],[6.0014,46.3138],[5.9962,46.3171],[5.9944,46.3148],[5.9905,46.3173],[5.9859,46.3147],[5.9821,46.3188],[5.9738,46.3228],[5.9736,46.3198],[5.9659,46.3207],[5.9619,46.3171],[5.9529,46.3041],[5.957,46.3019],[5.9558,46.2979],[5.9626,46.2922],[5.958,46.2854],[5.9635,46.2841],[6.0056,46.2615],[6.007,46.2625],[6.0094,46.2616],[6.0106,46.2594],[6.0126,46.2607],[6.0168,46.2585],[6.0197,46.2593],[6.0215,46.2621],[6.0277,46.2619]]]},"properties":{"COMMUNE":"Crozet","CANTON_DEPARTEMENT":"Ain"}},{"type":"Feature","geometry":{"type":"Polygon","coordinates":[[[6.0595,46.3845],[6.0648,46.3888],[6.0652,46.3919],[6.0783,46.388],[6.078,46.3907],[6.0801,46.3925],[6.0737,46.3978],[6.0611,46.4018],[6.0573,46.4043],[6.0578,46.4095],[6.0609,46.4116],[6.0573,46.4127],[6.0521,46.4113],[6.0492,46.4062],[6.0373,46.3954],[6.0359,46.3917],[6.0259,46.3844],[6.0199,46.3826],[6.0147,46.3764],[6.0073,46.3738],[6.0056,46.3717],[6.0017,46.3713],[6.0025,46.3709],[5.991,46.3653],[5.9866,46.3652],[5.984,46.3639],[5.9798,46.3542],[5.9755,46.3508],[5.9727,46.3465],[5.967,46.3429],[5.965,46.3379],[5.9626,46.3372],[5.9589,46.333],[5.9576,46.3295],[5.9533,46.3264],[5.9504,46.3202],[5.9477,46.3181],[5.9482,46.3169],[5.9455,46.3141],[5.9459,46.3132],[5.9435,46.3127],[5.9412,46.3097],[5.9545,46.306],[5.9619,46.3171],[5.9659,46.3207],[5.9739,46.32],[5.9735,46.3236],[5.9748,46.3255],[5.9706,46.3278],[5.974,46.3308],[5.986,46.3488],[5.9909,46.3451],[5.988,46.3404],[5.9917,46.338],[6.0012,46.3356],[6.0062,46.3479],[6.0138,46.3533],[6.0183,46.3586],[6.0268,46.3621],[6.0255,46.3637],[6.0232,46.3635],[6.0214,46.3665],[6.0156,46.3674],[6.0188,46.3705],[6.0257,46.3734],[6.0326,46.3744],[6.0363,46.377],[6.0433,46.3793],[6.046,46.3813],[6.0479,46.385],[6.0527,46.3871],[6.0595,46.3845]]]},"properties":{"COMMUNE":"Mijoux","CANTON_DEPARTEMENT":"Ain"}},{"type":"Feature","geometry":{"type":"Polygon","coordinates":[[[6.0797,46.3047],[6.078,46.3057],[6.0691,46.3008],[6.0651,46.301],[6.0646,46.2987],[6.0586,46.2929],[6.0613,46.2924],[6.0604,46.291],[6.0621,46.2905],[6.0588,46.289],[6.0589,46.2879],[6.0664,46.2844],[6.0687,46.2873],[6.0758,46.2831],[6.0786,46.2874],[6.082,46.2889],[6.0878,46.2941],[6.0855,46.2958],[6.0842,46.3013],[6.0797,46.3047]]]},"properties":{"COMMUNE":"Ségny","CANTON_DEPARTEMENT":"Ain"}},{"type":"Feature","geometry":{"type":"Polygon","coordinates":[[[6.2168,46.188],[6.224,46.1856],[6.2236,46.1844],[6.2262,46.1848],[6.2317,46.1829],[6.2377,46.1761],[6.2408,46.178],[6.2435,46.1826],[6.2464,46.1826],[6.2481,46.1848],[6.2515,46.1857],[6.251,46.1913],[6.2697,46.1943],[6.2724,46.1974],[6.2776,46.1961],[6.2786,46.197],[6.2755,46.1977],[6.2765,46.199],[6.2737,46.2004],[6.273,46.1983],[6.2513,46.1993],[6.2471,46.1979],[6.244,46.1986],[6.2425,46.1969],[6.2395,46.1984],[6.2405,46.2019],[6.2365,46.2014],[6.234,46.1979],[6.2285,46.1938],[6.2244,46.1928],[6.2255,46.1901],[6.2168,46.188]]]},"properties":{"COMMUNE":"Annemasse","CANTON_DEPARTEMENT":"Haute-Savoie"}},{"type":"Feature","geometry":{"type":"Polygon","coordinates":[[[5.9917,46.1768],[5.9904,46.1776],[5.995,46.1828],[5.9922,46.1865],[5.964,46.1969],[5.9577,46.1868],[5.9583,46.1827],[5.9535,46.1778],[5.9545,46.1772],[5.9537,46.1761],[5.9547,46.1729],[5.9575,46.1706],[5.9566,46.1666],[5.9521,46.1634],[5.9535,46.1618],[5.9583,46.1608],[5.9628,46.1581],[5.9731,46.156],[5.9802,46.1664],[5.982,46.1733],[5.9845,46.1735],[5.9878,46.1706],[5.9917,46.1768]]]},"properties":{"COMMUNE":"Challex","CANTON_DEPARTEMENT":"Ain"}},{"type":"Feature","geometry":{"type":"Polygon","coordinates":[[[6.0012,46.3356],[5.9998,46.3326],[6.0012,46.3268],[6.0086,46.3256],[6.0191,46.3286],[6.0541,46.3158],[6.063,46.3185],[6.0618,46.324],[6.0603,46.3254],[6.0611,46.3259],[6.0591,46.328],[6.0632,46.3306],[6.0659,46.3293],[6.0676,46.3305],[6.0695,46.3282],[6.0709,46.3295],[6.0708,46.3277],[6.0762,46.3213],[6.0805,46.3222],[6.0837,46.3199],[6.0898,46.3215],[6.0979,46.3259],[6.0909,46.3313],[6.0899,46.3333],[6.0909,46.3348],[6.0797,46.3369],[6.0803,46.3377],[6.0762,46.3423],[6.0761,46.3472],[6.0785,46.354],[6.0758,46.3608],[6.0715,46.3657],[6.072,46.3664],[6.0699,46.3675],[6.0713,46.3689],[6.0646,46.373],[6.0643,46.3783],[6.0608,46.3836],[6.0527,46.3871],[6.0479,46.385],[6.046,46.3813],[6.0433,46.3793],[6.0363,46.377],[6.0326,46.3744],[6.0229,46.3725],[6.016,46.368],[6.0214,46.3665],[6.0232,46.3635],[6.0255,46.3637],[6.0268,46.3621],[6.0183,46.3586],[6.0138,46.3533],[6.0062,46.3479],[6.0012,46.3356]]]},"properties":{"COMMUNE":"Gex","CANTON_DEPARTEMENT":"Ain"}},{"type":"Feature","geometry":{"type":"Polygon","coordinates":[[[6.0141,46.2393],[6.0113,46.2375],[6.0002,46.2474],[5.9953,46.2496],[5.9925,46.2524],[5.9925,46.254],[5.9895,46.255],[5.9906,46.2566],[5.9466,46.2746],[5.936,46.2678],[5.9204,46.2622],[5.9195,46.2603],[5.9208,46.2594],[5.9249,46.2599],[5.9217,46.2549],[5.922,46.2468],[5.923,46.2456],[5.9203,46.239],[5.9583,46.225],[5.9626,46.2198],[5.9672,46.2182],[5.966,46.2174],[5.9721,46.2165],[5.9715,46.2159],[5.9746,46.215],[5.9792,46.2173],[5.9928,46.2152],[5.9936,46.2179],[5.9902,46.2217],[5.9929,46.223],[5.9976,46.2223],[6.0,46.22],[6.0072,46.2239],[6.0066,46.2265],[6.0097,46.2273],[6.0096,46.229],[6.0125,46.2285],[6.013,46.231],[6.0152,46.2304],[6.0164,46.232],[6.0174,46.2316],[6.0164,46.232],[6.0175,46.2328],[6.017,46.2354],[6.0141,46.2393]]]},"properties":{"COMMUNE":"Thoiry","CANTON_DEPARTEMENT":"Ain"}},{"type":"Feature","geometry":{"type":"Polygon","coordinates":[[[6.0651,46.301],[6.0691,46.3008],[6.078,46.3057],[6.0798,46.3047],[6.081,46.3071],[6.0856,46.3103],[6.1019,46.3151],[6.1094,46.3204],[6.0998,46.3264],[6.0968,46.326],[6.0898,46.3215],[6.0837,46.3199],[6.0805,46.3222],[6.0762,46.3213],[6.0708,46.3277],[6.0709,46.3295],[6.0695,46.3282],[6.0676,46.3305],[6.0659,46.3293],[6.063,46.3306],[6.0591,46.328],[6.0611,46.3259],[6.0603,46.3254],[6.0618,46.324],[6.063,46.3185],[6.0547,46.3158],[6.0596,46.3127],[6.0583,46.31],[6.06,46.3065],[6.0614,46.3059],[6.0628,46.3074],[6.0655,46.3064],[6.0651,46.301]]]},"properties":{"COMMUNE":"Cessy","CANTON_DEPARTEMENT":"Ain"}},{"type":"Feature","geometry":{"type":"Polygon","coordinates":[[[6.2384,46.1758],[6.2363,46.1769],[6.2319,46.1827],[6.2258,46.1848],[6.2221,46.1833],[6.2215,46.1779],[6.2172,46.1744],[6.196,46.1752],[6.1911,46.1739],[6.1867,46.1777],[6.1862,46.1754],[6.1888,46.1664],[6.1754,46.1584],[6.1777,46.1557],[6.1854,46.1589],[6.1904,46.1543],[6.1977,46.1617],[6.2117,46.1691],[6.2129,46.1693],[6.2141,46.1669],[6.2254,46.1728],[6.244,46.17],[6.2446,46.1688],[6.2457,46.1698],[6.2454,46.174],[6.2384,46.1758]]]},"properties":{"COMMUNE":"Étrembières","CANTON_DEPARTEMENT":"Haute-Savoie"}},{"type":"Feature","geometry":{"type":"Polygon","coordinates":[[[6.1157,46.316],[6.1094,46.3204],[6.1028,46.3156],[6.0959,46.313],[6.1044,46.3061],[6.1081,46.3076],[6.1125,46.3068],[6.115,46.3087],[6.1192,46.3078],[6.1198,46.3126],[6.124,46.3154],[6.1245,46.3173],[6.1157,46.316]]]},"properties":{"COMMUNE":"Sauverny","CANTON_DEPARTEMENT":"Ain"}}]}