{"type":"FeatureCollection","features":[{"type":"Feature","geometry":{"type":"Polygon","coordinates":[[[6.1404,46.167],[6.1408,46.1683],[6.1402,46.1674],[6.1382,46.1688],[6.1345,46.168],[6.1366,46.17],[6.1353,46.1711],[6.1336,46.169],[6.1259,46.1723],[6.1239,46.1713],[6.1198,46.1741],[6.1151,46.173],[6.1104,46.1761],[6.0995,46.1742],[6.1,46.1723],[6.1047,46.1697],[6.0974,46.1659],[6.1021,46.1622],[6.0987,46.1577],[6.103,46.1549],[6.106,46.1589],[6.124,46.1518],[6.1269,46.1537],[6.1334,46.1544],[6.1349,46.1557],[6.1393,46.1549],[6.1398,46.1567],[6.1386,46.1597],[6.1404,46.167]]]},"properties":{"COMMUNE":"Plan-les-Ouates","NO_COM_FEDERAL":6633}},{"type":"Feature","geometry":{"type":"Polygon","coordinates":[[[6.1282,46.1878],[6.1284,46.181],[6.1312,46.1818],[6.1313,46.1766],[6.1296,46.1748],[6.1331,46.1764],[6.137,46.1732],[6.1389,46.1698],[6.1382,46.1692],[6.1397,46.1681],[6.1406,46.169],[6.1389,46.1723],[6.1459,46.1773],[6.1492,46.1766],[6.1538,46.1798],[6.1545,46.1847],[6.1531,46.1864],[6.1439,46.1869],[6.1414,46.1891],[6.137,46.1888],[6.135,46.1908],[6.1282,46.1878]]]},"properties":{"COMMUNE":"Carouge","NO_COM_FEDERAL":6608}},{"type":"Feature","geometry":{"type":"Polygon","coordinates":[[[6.1725,46.2116],[6.1619,46.2152],[6.156,46.208],[6.1575,46.2059],[6.1545,46.2045],[6.1562,46.2027],[6.1554,46.2013],[6.1566,46.199],[6.1535,46.1968],[6.1676,46.1892],[6.1726,46.1938],[6.1712,46.1945],[6.1758,46.2013],[6.1734,46.203],[6.1758,46.2058],[6.1749,46.207],[6.1717,46.2059],[6.1708,46.2067],[6.1733,46.2096],[6.1714,46.2111],[6.1725,46.2116]]]},"properties":{"COMMUNE":"Genève-Eaux-Vives","NO_COM_FEDERAL":6621}},{"type":"Feature","geometry":{"type":"Polygon","coordinates":[[[6.1888,46.1943],[6.1918,46.1953],[6.1917,46.1971],[6.1965,46.2017],[6.2015,46.2032],[6.2012,46.2072],[6.1991,46.2083],[6.1912,46.2054],[6.1881,46.2063],[6.1859,46.2046],[6.1794,46.2059],[6.1795,46.2042],[6.1743,46.1998],[6.1712,46.1945],[6.1726,46.1938],[6.1674,46.1899],[6.1714,46.1822],[6.1714,46.1789],[6.1692,46.1764],[6.1733,46.1761],[6.184,46.181],[6.1826,46.1844],[6.1867,46.1905],[6.185,46.1925],[6.1865,46.1945],[6.1888,46.1943]]]},"properties":{"COMMUNE":"Chêne-Bougeries","NO_COM_FEDERAL":6612}},{"type":"Feature","geometry":{"type":"Polygon","coordinates":[[[6.1094,46.2026],[6.1028,46.1968],[6.1084,46.1903],[6.1083,46.1866],[6.1111,46.184],[6.1099,46.181],[6.1127,46.1778],[6.11,46.1766],[6.1151,46.173],[6.1198,46.1741],[6.1239,46.1713],[6.1259,46.1723],[6.1336,46.169],[6.1353,46.1711],[6.1366,46.17],[6.1345,46.168],[6.1382,46.1688],[6.1403,46.1674],[6.1382,46.1692],[6.1389,46.1698],[6.137,46.1732],[6.1331,46.1764],[6.1296,46.1748],[6.1313,46.1766],[6.1312,46.1818],[6.1284,46.181],[6.1274,46.1971],[6.1234,46.1958],[6.1215,46.1961],[6.1216,46.1976],[6.1121,46.1969],[6.1113,46.2017],[6.1094,46.2026]]]},"properties":{"COMMUNE":"Lancy","NO_COM_FEDERAL":6628}},{"type":"Feature","geometry":{"type":"Polygon","coordinates":[[[6.1316,46.231],[6.1327,46.2317],[6.1298,46.2339],[6.136,46.237],[6.1285,46.245],[6.1291,46.2479],[6.1267,46.247],[6.1236,46.2506],[6.1088,46.2399],[6.1069,46.2412],[6.1009,46.2374],[6.105,46.2349],[6.1095,46.2269],[6.1177,46.2219],[6.1221,46.2251],[6.1219,46.2267],[6.1242,46.2257],[6.1316,46.231]]]},"properties":{"COMMUNE":"Grand-Saconnex","NO_COM_FEDERAL":6623}},{"type":"Feature","geometry":{"type":"Polygon","coordinates":[[[6.0894,46.1859],[6.0902,46.1886],[6.0862,46.1923],[6.0837,46.1896],[6.0881,46.1839],[6.0887,46.1784],[6.0786,46.1776],[6.0793,46.176],[6.0756,46.174],[6.0769,46.1716],[6.0753,46.1701],[6.0829,46.1665],[6.0855,46.1674],[6.0882,46.1633],[6.0957,46.1675],[6.0974,46.1659],[6.1047,46.1697],[6.1,46.1723],[6.0991,46.1758],[6.0959,46.1759],[6.0939,46.178],[6.0931,46.1793],[6.0948,46.1809],[6.0919,46.1816],[6.0927,46.1822],[6.0919,46.1837],[6.0894,46.1859]]]},"properties":{"COMMUNE":"Confignon","NO_COM_FEDERAL":6618}},{"type":"Feature","geometry":{"type":"Polygon","coordinates":[[[6.1092,46.1853],[6.1077,46.1883],[6.109,46.1888],[6.1084,46.1903],[6.1034,46.1967],[6.0977,46.1925],[6.0892,46.1934],[6.0865,46.1924],[6.0902,46.1886],[6.0894,46.1859],[6.0919,46.1837],[6.0927,46.1822],[6.0919,46.1816],[6.0948,46.1809],[6.0931,46.1793],[6.0939,46.178],[6.0959,46.1759],[6.0991,46.1758],[6.0989,46.174],[6.1104,46.1761],[6.1127,46.1778],[6.1099,46.181],[6.1111,46.184],[6.1092,46.1853]]]},"properties":{"COMMUNE":"Onex","NO_COM_FEDERAL":6631}},{"type":"Feature","geometry":{"type":"Polygon","coordinates":[[[6.035,46.1993],[6.0479,46.1938],[6.058,46.1927],[6.0643,46.1938],[6.067,46.1956],[6.0707,46.2011],[6.0739,46.2024],[6.0716,46.2044],[6.0732,46.208],[6.069,46.211],[6.0745,46.2139],[6.0688,46.2168],[6.0696,46.2173],[6.0535,46.2292],[6.0461,46.2314],[6.0337,46.2386],[6.0255,46.2332],[6.0164,46.232],[6.0153,46.2304],[6.0131,46.2311],[6.0134,46.2291],[6.0123,46.2285],[6.0096,46.229],[6.0097,46.2273],[6.0066,46.2265],[6.0072,46.2239],[5.9986,46.2194],[5.9989,46.2173],[5.9949,46.2129],[5.9948,46.2093],[5.9996,46.2085],[6.0001,46.2072],[6.0081,46.2098],[6.0092,46.2086],[6.0079,46.208],[6.0096,46.2054],[6.0083,46.2047],[6.0085,46.2032],[6.0123,46.2039],[6.0169,46.2001],[6.035,46.1993]]]},"properties":{"COMMUNE":"Satigny","NO_COM_FEDERAL":6638}},{"type":"Feature","geometry":{"type":"Polygon","coordinates":[[[6.0191,46.1817],[6.031,46.1879],[6.0312,46.19],[6.0281,46.1952],[6.031,46.1995],[6.0169,46.2001],[6.0123,46.2039],[6.0089,46.203],[6.0083,46.2047],[6.0095,46.2061],[6.0079,46.208],[6.0092,46.2086],[6.008,46.2098],[6.0021,46.2073],[5.9948,46.2093],[5.9923,46.2086],[5.9941,46.2073],[5.9949,46.2039],[6.0013,46.2009],[6.0039,46.1975],[6.0023,46.1952],[6.0103,46.1837],[6.0087,46.1805],[6.0097,46.1768],[6.0143,46.1777],[6.0191,46.1817]]]},"properties":{"COMMUNE":"Russin","NO_COM_FEDERAL":6637}},{"type":"Feature","geometry":{"type":"Polygon","coordinates":[[[6.0739,46.2024],[6.0702,46.2007],[6.0662,46.1949],[6.0598,46.1929],[6.0604,46.1917],[6.0589,46.1899],[6.053,46.1864],[6.0561,46.1851],[6.0537,46.1823],[6.0507,46.1826],[6.0518,46.1792],[6.0489,46.1758],[6.0383,46.1707],[6.0454,46.1643],[6.0456,46.162],[6.044,46.1615],[6.0496,46.1573],[6.0485,46.1561],[6.05,46.1545],[6.049,46.1536],[6.0497,46.1515],[6.0539,46.1565],[6.0612,46.1596],[6.0721,46.1528],[6.0747,46.1494],[6.0766,46.1542],[6.0767,46.1612],[6.0802,46.1613],[6.0828,46.1633],[6.0819,46.164],[6.0866,46.1662],[6.0854,46.1674],[6.082,46.1668],[6.0781,46.1697],[6.0754,46.1699],[6.0769,46.1716],[6.0756,46.174],[6.0793,46.176],[6.0787,46.1776],[6.0887,46.1784],[6.0881,46.1839],[6.0837,46.1898],[6.0892,46.1934],[6.087,46.1962],[6.0904,46.1988],[6.0907,46.2025],[6.0938,46.2093],[6.0919,46.211],[6.089,46.2111],[6.0795,46.2029],[6.0739,46.2024]]]},"properties":{"COMMUNE":"Bernex","NO_COM_FEDERAL":6607}},{"type":"Feature","geometry":{"type":"Polygon","coordinates":[[[6.0747,46.2203],[6.0763,46.2187],[6.0739,46.2172],[6.0721,46.2187],[6.0688,46.2168],[6.0745,46.2139],[6.069,46.211],[6.0733,46.2079],[6.0721,46.2035],[6.0739,46.2024],[6.0788,46.2026],[6.0871,46.2101],[6.0923,46.2109],[6.0938,46.2086],[6.0908,46.2027],[6.0905,46.1989],[6.087,46.1958],[6.0885,46.1937],[6.0933,46.1922],[6.0991,46.1931],[6.1071,46.2011],[6.1108,46.2028],[6.1103,46.2058],[6.1193,46.2162],[6.1138,46.2203],[6.1174,46.2221],[6.1119,46.2249],[6.1036,46.2202],[6.0879,46.2245],[6.087,46.222],[6.084,46.2203],[6.0784,46.2217],[6.0747,46.2203]]]},"properties":{"COMMUNE":"Vernier","NO_COM_FEDERAL":6643}},{"type":"Feature","geometry":{"type":"Polygon","coordinates":[[[5.9688,46.1517],[5.9641,46.1441],[5.9663,46.1379],[5.9559,46.1324],[5.9568,46.1288],[5.9611,46.1308],[5.9652,46.1297],[5.9695,46.132],[5.973,46.1316],[5.9772,46.1334],[5.9819,46.1374],[5.9828,46.1447],[5.9858,46.1512],[6.0058,46.1576],[6.0034,46.1596],[6.0044,46.1607],[6.0011,46.163],[5.9971,46.1628],[5.9923,46.1645],[5.9868,46.1589],[5.9841,46.1578],[5.98,46.1583],[5.9758,46.1609],[5.9688,46.1517]]]},"properties":{"COMMUNE":"Chancy","NO_COM_FEDERAL":6611}},{"type":"Feature","geometry":{"type":"Polygon","coordinates":[[[6.1314,46.2309],[6.1242,46.2257],[6.1219,46.2267],[6.1218,46.2248],[6.1138,46.2203],[6.1193,46.2162],[6.1103,46.2058],[6.1108,46.2028],[6.1192,46.2009],[6.1342,46.2038],[6.1361,46.2048],[6.1352,46.206],[6.1299,46.2067],[6.1309,46.2086],[6.1367,46.2134],[6.1384,46.2124],[6.1396,46.2164],[6.1412,46.2163],[6.1414,46.2174],[6.1486,46.2135],[6.15,46.2152],[6.1522,46.2155],[6.1595,46.2122],[6.1667,46.2245],[6.1489,46.2278],[6.1434,46.2306],[6.1429,46.2293],[6.1385,46.2303],[6.1383,46.2281],[6.1331,46.2319],[6.1314,46.2309]]]},"properties":{"COMMUNE":"Genève-Petit-Saconnex","NO_COM_FEDERAL":6621}},{"type":"Feature","geometry":{"type":"Polygon","coordinates":[[[5.9862,46.1717],[5.9841,46.1737],[5.9819,46.1732],[5.9802,46.1664],[5.9758,46.1609],[5.9769,46.1599],[5.9845,46.1579],[5.9922,46.1644],[5.9938,46.1644],[5.9971,46.1628],[6.0011,46.163],[6.0044,46.1607],[6.0034,46.1596],[6.0058,46.1576],[6.0206,46.1638],[6.0184,46.1687],[6.0128,46.1725],[6.0108,46.1769],[6.0044,46.1753],[5.9923,46.177],[5.9901,46.1757],[5.9881,46.1708],[5.9862,46.1717]]]},"properties":{"COMMUNE":"Avully","NO_COM_FEDERAL":6603}},{"type":"Feature","geometry":{"type":"Polygon","coordinates":[[[6.1387,46.2127],[6.1367,46.2134],[6.1299,46.2067],[6.1389,46.2049],[6.1394,46.2013],[6.1429,46.1974],[6.1505,46.1958],[6.1566,46.199],[6.1554,46.2013],[6.1562,46.2027],[6.1545,46.2045],[6.1575,46.2059],[6.156,46.208],[6.1595,46.2122],[6.1522,46.2155],[6.15,46.2152],[6.1486,46.2135],[6.1416,46.2174],[6.1412,46.2163],[6.1396,46.2164],[6.1387,46.2127]]]},"properties":{"COMMUNE":"Genève-Cité","NO_COM_FEDERAL":6621}},{"type":"Feature","geometry":{"type":"Polygon","coordinates":[[[6.1754,46.1584],[6.1729,46.1606],[6.1636,46.1596],[6.1568,46.164],[6.1584,46.1654],[6.1548,46.1671],[6.1542,46.1663],[6.1488,46.1689],[6.1414,46.1687],[6.1391,46.1632],[6.1385,46.1593],[6.1398,46.1566],[6.1384,46.1508],[6.1424,46.1499],[6.1463,46.1471],[6.1486,46.1501],[6.1539,46.1522],[6.1754,46.1584]]]},"properties":{"COMMUNE":"Troinex","NO_COM_FEDERAL":6641}},{"type":"Feature","geometry":{"type":"Polygon","coordinates":[[[6.2493,46.2625],[6.2477,46.2615],[6.2406,46.2624],[6.2354,46.2662],[6.2286,46.2666],[6.2264,46.2653],[6.2255,46.2671],[6.2164,46.2718],[6.1951,46.2796],[6.1899,46.2728],[6.2098,46.2655],[6.2134,46.2625],[6.2201,46.2603],[6.2218,46.2571],[6.2258,46.255],[6.2253,46.254],[6.2282,46.2538],[6.231,46.2564],[6.2337,46.2557],[6.2346,46.2569],[6.2416,46.2574],[6.2451,46.2561],[6.2489,46.2604],[6.2493,46.2625]]]},"properties":{"COMMUNE":"Corsier","NO_COM_FEDERAL":6619}},{"type":"Feature","geometry":{"type":"Polygon","coordinates":[[[6.0747,46.2203],[6.0784,46.2217],[6.084,46.2203],[6.087,46.222],[6.0879,46.2245],[6.1036,46.2202],[6.1119,46.2249],[6.1089,46.2277],[6.105,46.2349],[6.1009,46.2374],[6.102,46.2377],[6.0881,46.2471],[6.0735,46.2437],[6.073,46.2413],[6.0673,46.2418],[6.0633,46.2458],[6.0604,46.245],[6.0534,46.2395],[6.0461,46.2314],[6.0535,46.2292],[6.0697,46.2172],[6.0721,46.2187],[6.0739,46.2172],[6.0763,46.2187],[6.0747,46.2203]]]},"properties":{"COMMUNE":"Meyrin","NO_COM_FEDERAL":6630}},{"type":"Feature","geometry":{"type":"Polygon","coordinates":[[[6.0318,46.1992],[6.0282,46.1958],[6.0314,46.1893],[6.0287,46.1862],[6.0398,46.1819],[6.0449,46.185],[6.0506,46.1822],[6.0537,46.1823],[6.0561,46.1852],[6.053,46.1864],[6.0604,46.1917],[6.0598,46.1929],[6.047,46.194],[6.037,46.1988],[6.0318,46.1992]]]},"properties":{"COMMUNE":"Aire-la-Ville","NO_COM_FEDERAL":6601}},{"type":"Feature","geometry":{"type":"Polygon","coordinates":[[[6.0256,46.1659],[6.0479,46.175],[6.0518,46.1792],[6.051,46.1819],[6.0449,46.185],[6.0398,46.1819],[6.0287,46.1862],[6.0178,46.1812],[6.0143,46.1777],[6.0108,46.1769],[6.0128,46.1725],[6.0184,46.1687],[6.0201,46.1638],[6.0256,46.1659]]]},"properties":{"COMMUNE":"Cartigny","NO_COM_FEDERAL":6609}},{"type":"Feature","geometry":{"type":"Polygon","coordinates":[[[6.161,46.1923],[6.1596,46.1943],[6.1534,46.197],[6.1505,46.1958],[6.1429,46.1974],[6.1394,46.2013],[6.1389,46.2049],[6.1194,46.2009],[6.1107,46.2028],[6.1121,46.1969],[6.1216,46.1976],[6.1215,46.1961],[6.1234,46.1958],[6.1274,46.1971],[6.1276,46.1878],[6.135,46.1908],[6.137,46.1888],[6.1414,46.1891],[6.1439,46.1869],[6.1534,46.1863],[6.1545,46.1847],[6.1538,46.1798],[6.1562,46.1779],[6.1595,46.1789],[6.163,46.1877],[6.1679,46.1873],[6.1676,46.1892],[6.161,46.1923]]]},"properties":{"COMMUNE":"Genève-Plainpalais","NO_COM_FEDERAL":6621}},{"type":"Feature","geometry":{"type":"Polygon","coordinates":[[[6.1388,46.2296],[6.1429,46.2293],[6.1434,46.2306],[6.1489,46.2278],[6.1667,46.2245],[6.1734,46.242],[6.1501,46.2464],[6.1421,46.2509],[6.1405,46.2507],[6.1285,46.2451],[6.136,46.237],[6.1298,46.2339],[6.1363,46.2304],[6.1379,46.2282],[6.1388,46.2296]]]},"properties":{"COMMUNE":"Pregny-Chambésy","NO_COM_FEDERAL":6634}},{"type":"Feature","geometry":{"type":"Polygon","coordinates":[[[6.1931,46.2374],[6.1732,46.2412],[6.1659,46.2225],[6.1619,46.2152],[6.1724,46.2119],[6.1714,46.2111],[6.1733,46.2096],[6.1708,46.2067],[6.1717,46.2059],[6.1749,46.207],[6.1758,46.2058],[6.1734,46.203],[6.1758,46.2013],[6.1795,46.2042],[6.1796,46.206],[6.1859,46.2046],[6.1881,46.2063],[6.1912,46.2054],[6.1954,46.207],[6.1898,46.214],[6.1906,46.2155],[6.1881,46.2174],[6.1902,46.2194],[6.1877,46.2207],[6.2017,46.2328],[6.1931,46.2374]]]},"properties":{"COMMUNE":"Cologny","NO_COM_FEDERAL":6617}},{"type":"Feature","geometry":{"type":"Polygon","coordinates":[[[5.9904,46.1776],[6.0064,46.1757],[6.0097,46.1768],[6.0087,46.1805],[6.0103,46.1837],[6.0023,46.1952],[6.0039,46.1975],[6.0013,46.2009],[5.9949,46.2039],[5.9941,46.2073],[5.9923,46.2084],[5.9948,46.2093],[5.9949,46.2129],[5.9989,46.2173],[5.9986,46.2194],[6.0,46.2201],[5.998,46.2221],[5.9929,46.223],[5.9902,46.2217],[5.9936,46.2179],[5.9928,46.2152],[5.9792,46.2173],[5.9747,46.215],[5.9693,46.2067],[5.9734,46.2026],[5.9656,46.1995],[5.9637,46.197],[5.9922,46.1865],[5.9949,46.1818],[5.9904,46.1776]]]},"properties":{"COMMUNE":"Dardagny","NO_COM_FEDERAL":6620}},{"type":"Feature","geometry":{"type":"Polygon","coordinates":[[[6.212,46.2118],[6.2037,46.2092],[6.2049,46.2081],[6.2049,46.2042],[6.2038,46.2033],[6.2053,46.1991],[6.2025,46.1975],[6.2027,46.1962],[6.2001,46.1958],[6.1984,46.1906],[6.1867,46.1902],[6.1826,46.1844],[6.184,46.181],[6.1813,46.1795],[6.1874,46.1786],[6.1871,46.1804],[6.189,46.1807],[6.1885,46.1816],[6.1912,46.1813],[6.195,46.1842],[6.1979,46.1834],[6.2027,46.1891],[6.2049,46.1898],[6.2052,46.1918],[6.2123,46.1928],[6.2127,46.1943],[6.216,46.195],[6.2183,46.1987],[6.2221,46.1988],[6.2219,46.2006],[6.2244,46.2013],[6.222,46.205],[6.2177,46.2083],[6.2171,46.2105],[6.2151,46.21],[6.212,46.2118]]]},"properties":{"COMMUNE":"Thônex","NO_COM_FEDERAL":6640}},{"type":"Feature","geometry":{"type":"Polygon","coordinates":[[[6.2261,46.2022],[6.234,46.2064],[6.2452,46.205],[6.2448,46.207],[6.2411,46.2084],[6.2411,46.2098],[6.2454,46.2126],[6.2477,46.2158],[6.2388,46.2189],[6.2378,46.2177],[6.234,46.2184],[6.2322,46.2155],[6.2259,46.2176],[6.2171,46.2105],[6.2177,46.2083],[6.2245,46.2013],[6.2261,46.2022]]]},"properties":{"COMMUNE":"Puplinge","NO_COM_FEDERAL":6636}},{"type":"Feature","geometry":{"type":"Polygon","coordinates":[[[6.1889,46.1943],[6.1865,46.1945],[6.185,46.1926],[6.1867,46.1902],[6.1984,46.1906],[6.2001,46.1958],[6.2027,46.1962],[6.2025,46.1975],[6.2053,46.1991],[6.2038,46.2033],[6.2049,46.2042],[6.2049,46.2081],[6.2037,46.2092],[6.202,46.2084],[6.2015,46.2032],[6.1965,46.2017],[6.1917,46.1971],[6.1918,46.1953],[6.1889,46.1943]]]},"properties":{"COMMUNE":"Chêne-Bourg","NO_COM_FEDERAL":6613}},{"type":"Feature","geometry":{"type":"Polygon","coordinates":[[[6.19,46.214],[6.1954,46.207],[6.1991,46.2083],[6.2012,46.2072],[6.2043,46.2098],[6.212,46.2118],[6.215,46.21],[6.217,46.2105],[6.2166,46.2124],[6.2192,46.2146],[6.22,46.2182],[6.2167,46.2218],[6.2183,46.2248],[6.2104,46.2268],[6.2017,46.2328],[6.1877,46.2207],[6.1902,46.2194],[6.1881,46.2174],[6.1906,46.2155],[6.19,46.214]]]},"properties":{"COMMUNE":"Vandoeuvres","NO_COM_FEDERAL":6642}},{"type":"Feature","geometry":{"type":"Polygon","coordinates":[[[6.1514,46.2729],[6.1476,46.2755],[6.1412,46.2722],[6.1429,46.2717],[6.1411,46.2689],[6.1438,46.2652],[6.1433,46.2608],[6.1564,46.2555],[6.1772,46.2517],[6.1806,46.2604],[6.184,46.265],[6.1575,46.2738],[6.1514,46.2729]]]},"properties":{"COMMUNE":"Genthod","NO_COM_FEDERAL":6622}},{"type":"Feature","geometry":{"type":"Polygon","coordinates":[[[6.1197,46.2608],[6.1225,46.2582],[6.1215,46.2577],[6.1228,46.2564],[6.1209,46.2544],[6.1245,46.2526],[6.1236,46.2506],[6.1267,46.247],[6.1291,46.2479],[6.1285,46.2451],[6.1419,46.251],[6.1501,46.2464],[6.1734,46.242],[6.1772,46.2517],[6.1564,46.2555],[6.1445,46.2601],[6.1433,46.2609],[6.1438,46.2652],[6.1411,46.2689],[6.1429,46.2717],[6.1412,46.2723],[6.1197,46.2608]]]},"properties":{"COMMUNE":"Bellevue","NO_COM_FEDERAL":6606}},{"type":"Feature","geometry":{"type":"Polygon","coordinates":[[[5.9824,46.1423],[5.9941,46.1446],[6.0032,46.1418],[6.015,46.1431],[6.0238,46.1406],[6.0356,46.1477],[6.0295,46.151],[6.0168,46.1535],[6.02,46.1591],[6.02,46.1636],[6.0008,46.1556],[5.9858,46.1512],[5.9824,46.1423]]]},"properties":{"COMMUNE":"Avusy","NO_COM_FEDERAL":6604}},{"type":"Feature","geometry":{"type":"Polygon","coordinates":[[[6.0961,46.1548],[6.1021,46.1622],[6.0957,46.1675],[6.0882,46.1633],[6.0866,46.1663],[6.0819,46.164],[6.0828,46.1633],[6.0802,46.1613],[6.0767,46.1612],[6.0766,46.1539],[6.0743,46.1491],[6.0917,46.1519],[6.0961,46.1548]]]},"properties":{"COMMUNE":"Perly-Certoux","NO_COM_FEDERAL":6632}},{"type":"Feature","geometry":{"type":"Polygon","coordinates":[[[6.0361,46.1479],[6.037,46.1485],[6.0362,46.1498],[6.0423,46.153],[6.0457,46.1521],[6.0483,46.1497],[6.0497,46.1515],[6.049,46.1536],[6.05,46.1545],[6.0485,46.1561],[6.0496,46.1573],[6.044,46.1615],[6.0456,46.162],[6.0454,46.1643],[6.0383,46.1707],[6.0202,46.1636],[6.02,46.159],[6.0168,46.1535],[6.0295,46.151],[6.0361,46.1479]]]},"properties":{"COMMUNE":"Laconnex","NO_COM_FEDERAL":6627}},{"type":"Feature","geometry":{"type":"Polygon","coordinates":[[[6.2408,46.2267],[6.2359,46.2279],[6.2372,46.2342],[6.2312,46.2361],[6.2315,46.2353],[6.2276,46.2326],[6.2256,46.2328],[6.2235,46.2302],[6.2213,46.2306],[6.2212,46.2316],[6.2142,46.2316],[6.2163,46.2356],[6.2131,46.2372],[6.2042,46.2351],[6.2017,46.2329],[6.2104,46.2268],[6.2183,46.2248],[6.2167,46.2218],[6.22,46.2182],[6.2192,46.2146],[6.2166,46.2124],[6.217,46.2105],[6.2259,46.2176],[6.2322,46.2155],[6.2344,46.2195],[6.2409,46.2241],[6.2424,46.2235],[6.2432,46.2262],[6.2408,46.2267]]]},"properties":{"COMMUNE":"Choulex","NO_COM_FEDERAL":6614}},{"type":"Feature","geometry":{"type":"Polygon","coordinates":[[[6.2415,46.3044],[6.2196,46.3119],[6.2101,46.2994],[6.2462,46.2853],[6.2489,46.2865],[6.2489,46.2877],[6.2515,46.2881],[6.253,46.2906],[6.2504,46.2919],[6.2512,46.2932],[6.2486,46.2943],[6.2502,46.2964],[6.2483,46.2965],[6.249,46.2975],[6.248,46.298],[6.2493,46.2989],[6.247,46.3],[6.249,46.3019],[6.2415,46.3044]]]},"properties":{"COMMUNE":"Hermance","NO_COM_FEDERAL":6625}},{"type":"Feature","geometry":{"type":"Polygon","coordinates":[[[6.1264,46.3168],[6.1242,46.3172],[6.1241,46.3155],[6.1198,46.3125],[6.1192,46.3078],[6.1208,46.3068],[6.1188,46.3028],[6.1218,46.2997],[6.1199,46.2979],[6.1332,46.2914],[6.1338,46.2882],[6.1305,46.2844],[6.1319,46.2813],[6.1385,46.2814],[6.138,46.2794],[6.1391,46.2786],[6.1434,46.2811],[6.1403,46.2753],[6.1412,46.2722],[6.1476,46.2755],[6.1513,46.2729],[6.1575,46.2738],[6.184,46.265],[6.1987,46.2844],[6.1703,46.2948],[6.1534,46.2992],[6.1407,46.3047],[6.1298,46.3129],[6.1281,46.3144],[6.1288,46.3153],[6.1259,46.3162],[6.1264,46.3168]]]},"properties":{"COMMUNE":"Versoix","NO_COM_FEDERAL":6644}},{"type":"Feature","geometry":{"type":"Polygon","coordinates":[[[6.2052,46.2354],[6.2142,46.2372],[6.2149,46.241],[6.2135,46.2416],[6.2183,46.2477],[6.222,46.2511],[6.2252,46.2496],[6.2281,46.2538],[6.2251,46.254],[6.2258,46.255],[6.2218,46.2571],[6.2202,46.2603],[6.2134,46.2625],[6.2098,46.2655],[6.1899,46.2728],[6.1806,46.2604],[6.1732,46.2412],[6.1926,46.2378],[6.2017,46.2329],[6.2052,46.2354]]]},"properties":{"COMMUNE":"Collonge-Bellerive","NO_COM_FEDERAL":6616}},{"type":"Feature","geometry":{"type":"Polygon","coordinates":[[[6.244,46.2853],[6.2361,46.2899],[6.2101,46.2994],[6.1951,46.2796],[6.2164,46.2718],[6.2255,46.2671],[6.2264,46.2653],[6.2286,46.2666],[6.2355,46.2662],[6.2399,46.2626],[6.2477,46.2615],[6.2497,46.2626],[6.2429,46.2729],[6.2391,46.2749],[6.2376,46.2777],[6.239,46.2795],[6.2379,46.282],[6.2397,46.282],[6.2417,46.285],[6.244,46.2853]]]},"properties":{"COMMUNE":"Anières","NO_COM_FEDERAL":6602}},{"type":"Feature","geometry":{"type":"Polygon","coordinates":[[[6.1197,46.2608],[6.1412,46.2723],[6.1403,46.2753],[6.1434,46.2811],[6.1391,46.2786],[6.138,46.2794],[6.1385,46.2814],[6.1319,46.2813],[6.1305,46.2844],[6.1338,46.2882],[6.1332,46.2914],[6.1205,46.2974],[6.1186,46.2959],[6.1196,46.2943],[6.1141,46.2947],[6.1116,46.2915],[6.1024,46.2849],[6.1051,46.283],[6.1033,46.2787],[6.1135,46.2726],[6.1099,46.2706],[6.1154,46.2659],[6.12,46.2648],[6.1181,46.2634],[6.1197,46.2608]]]},"properties":{"COMMUNE":"Collex-Bossy","NO_COM_FEDERAL":6615}},{"type":"Feature","geometry":{"type":"Polygon","coordinates":[[[6.2465,46.2266],[6.2481,46.2295],[6.2429,46.2305],[6.2435,46.2331],[6.2413,46.2334],[6.2429,46.2371],[6.2468,46.2363],[6.2486,46.2393],[6.2533,46.2382],[6.256,46.2415],[6.2573,46.2436],[6.2557,46.2434],[6.2567,46.2458],[6.2535,46.2474],[6.2543,46.2493],[6.2496,46.2489],[6.2537,46.2525],[6.2416,46.2574],[6.2346,46.2569],[6.2337,46.2557],[6.231,46.2564],[6.2252,46.2496],[6.222,46.251],[6.2135,46.2416],[6.2149,46.241],[6.2145,46.2375],[6.2132,46.2366],[6.2163,46.2356],[6.2142,46.2316],[6.2212,46.2316],[6.2213,46.2306],[6.2235,46.2302],[6.2256,46.2328],[6.2276,46.2326],[6.2315,46.2353],[6.2312,46.2361],[6.2372,46.2341],[6.2359,46.2279],[6.2433,46.2262],[6.2465,46.2266]]]},"properties":{"COMMUNE":"Meinier","NO_COM_FEDERAL":6629}},{"type":"Feature","geometry":{"type":"Polygon","coordinates":[[[6.141,46.1734],[6.1389,46.1723],[6.1404,46.1683],[6.1488,46.1689],[6.1542,46.1663],[6.1548,46.1671],[6.1584,46.1654],[6.1568,46.164],[6.1636,46.1596],[6.1729,46.1606],[6.1754,46.1584],[6.1888,46.1664],[6.1862,46.1783],[6.1794,46.1795],[6.1743,46.1765],[6.1699,46.1759],[6.1691,46.1771],[6.1714,46.1789],[6.1712,46.1828],[6.1687,46.1866],[6.1656,46.1881],[6.1624,46.1871],[6.1588,46.1782],[6.1558,46.178],[6.1538,46.1798],[6.1492,46.1766],[6.1459,46.1773],[6.141,46.1734]]]},"properties":{"COMMUNE":"Veyrier","NO_COM_FEDERAL":6645}}]}