{"type":"FeatureCollection","features":[{"type":"Feature","geometry":{"type":"MultiPolygon","coordinates":[[[[5.8336,45.9711],[5.8325,45.9687],[5.8321,45.9561],[5.8357,45.9458],[5.8346,45.9446],[5.8345,45.9483],[5.8326,45.9483],[5.8306,45.9425],[5.825,45.9399],[5.8202,45.9313],[5.8203,45.9276],[5.8249,45.9213],[5.8261,45.9173],[5.822,45.905],[5.8232,45.905],[5.8273,45.9154],[5.8268,45.9199],[5.8236,45.9251],[5.8262,45.9255],[5.8249,45.9305],[5.8284,45.9348],[5.8294,45.9387],[5.8332,45.9376],[5.8372,45.9452],[5.8367,45.9505],[5.8332,45.9579],[5.8359,45.9608],[5.834,45.967],[5.8352,45.9707],[5.8336,45.9711]],[[5.8347,45.9527],[5.8337,45.9555],[5.8348,45.9542],[5.8347,45.9527]],[[5.8316,45.9393],[5.8323,45.9392],[5.8324,45.9385],[5.8316,45.9393]],[[5.8246,45.9317],[5.8252,45.9338],[5.8262,45.933],[5.8241,45.9297],[5.8246,45.9317]]],[[[5.8122,46.0504],[5.8131,46.0516],[5.8119,46.0519],[5.8063,46.044],[5.8087,46.0373],[5.8085,46.0323],[5.8119,46.0252],[5.8103,46.0212],[5.8084,46.0194],[5.8078,46.0203],[5.8075,46.0184],[5.8045,46.0155],[5.8086,46.0092],[5.8079,46.0054],[5.8093,45.9945],[5.8085,45.9935],[5.8061,45.9938],[5.8081,45.993],[5.8073,45.9911],[5.8085,45.9883],[5.817,45.9815],[5.8303,45.9749],[5.8324,45.9716],[5.8354,45.9712],[5.835,45.9725],[5.838,45.9767],[5.8348,45.9731],[5.8308,45.9775],[5.8169,45.9844],[5.8109,45.9894],[5.8113,45.998],[5.8101,46.0052],[5.8114,46.0103],[5.8058,46.0151],[5.8099,46.0183],[5.8129,46.0245],[5.8094,46.0324],[5.8093,46.0384],[5.8072,46.044],[5.8122,46.0504]],[[5.8073,46.0176],[5.8084,46.0186],[5.8079,46.0178],[5.8073,46.0176]],[[5.8096,46.0102],[5.8098,46.01],[5.8091,46.0095],[5.8096,46.0102]],[[5.8094,45.995],[5.8087,45.9974],[5.8091,45.9999],[5.8094,45.995]]],[[[6.148,46.207],[6.1194,46.2012],[6.1134,46.2032],[6.1093,46.2031],[6.0988,46.1934],[6.0953,46.1927],[6.0909,46.1934],[6.0877,46.1957],[6.0912,46.1987],[6.0915,46.2032],[6.0946,46.2083],[6.0939,46.2104],[6.0907,46.212],[6.0856,46.21],[6.0796,46.2036],[6.0702,46.2017],[6.0664,46.1959],[6.0629,46.1941],[6.0539,46.1941],[6.0451,46.1959],[6.0432,46.201],[6.0421,46.1973],[6.0353,46.2],[6.0275,46.1994],[6.0303,46.1993],[6.026,46.1939],[6.0267,46.1926],[6.0285,46.193],[6.029,46.1924],[6.0279,46.1924],[6.0307,46.1899],[6.0305,46.188],[6.0237,46.1837],[6.0174,46.1814],[6.0141,46.1781],[6.0049,46.1758],[5.9922,46.1775],[5.9896,46.176],[5.9871,46.1709],[5.9846,46.174],[5.9812,46.1736],[5.9798,46.1715],[5.9794,46.1662],[5.964,46.146],[5.9637,46.1423],[5.9661,46.1384],[5.9646,46.1367],[5.9465,46.1288],[5.9364,46.1306],[5.9308,46.1295],[5.926,46.1324],[5.9213,46.1327],[5.9222,46.1333],[5.9214,46.1337],[5.9038,46.1203],[5.8926,46.1191],[5.8848,46.1073],[5.8923,46.0995],[5.893,46.097],[5.8908,46.0887],[5.8878,46.0864],[5.8808,46.0857],[5.8721,46.0872],[5.8638,46.0856],[5.8578,46.0862],[5.8455,46.0951],[5.8404,46.103],[5.8314,46.1069],[5.8248,46.1041],[5.8195,46.1042],[5.8192,46.1029],[5.8221,46.1007],[5.8233,46.0978],[5.8215,46.0914],[5.8169,46.0865],[5.8171,46.0839],[5.8159,46.0837],[5.8151,46.081],[5.81,46.0784],[5.8108,46.0752],[5.8066,46.0646],[5.8067,46.061],[5.8093,46.0587],[5.8138,46.0576],[5.8115,46.0531],[5.814,46.0524],[5.8148,46.0545],[5.8173,46.0547],[5.8153,46.0554],[5.8167,46.0566],[5.8163,46.0576],[5.8098,46.0598],[5.8084,46.0627],[5.8111,46.0736],[5.8131,46.0759],[5.8119,46.0772],[5.8124,46.079],[5.8169,46.0807],[5.8189,46.0838],[5.8182,46.0863],[5.8214,46.0868],[5.821,46.0886],[5.8234,46.0896],[5.824,46.098],[5.823,46.1014],[5.8202,46.103],[5.8202,46.1041],[5.8246,46.1037],[5.8286,46.1058],[5.8326,46.1054],[5.8405,46.1007],[5.8428,46.0953],[5.8585,46.0852],[5.8669,46.0849],[5.8719,46.0866],[5.882,46.0845],[5.8881,46.0854],[5.8923,46.0884],[5.8941,46.0956],[5.8935,46.0996],[5.8873,46.1053],[5.8862,46.1087],[5.8932,46.1188],[5.9041,46.1198],[5.9091,46.1237],[5.9137,46.1244],[5.9144,46.1263],[5.9218,46.1286],[5.9278,46.1273],[5.9321,46.1282],[5.9352,46.1272],[5.9346,46.1278],[5.9358,46.1284],[5.9481,46.1276],[5.9608,46.1345],[5.9594,46.1345],[5.9644,46.1356],[5.9682,46.1381],[5.9656,46.1413],[5.9652,46.1451],[5.981,46.1664],[5.9831,46.1732],[5.9849,46.1728],[5.9878,46.1693],[5.9904,46.175],[5.9927,46.1766],[6.0039,46.175],[6.0144,46.1773],[6.0181,46.1808],[6.031,46.1872],[6.0319,46.1898],[6.0294,46.1933],[6.0333,46.198],[6.0375,46.1979],[6.0419,46.1948],[6.0494,46.1919],[6.0602,46.192],[6.0652,46.1935],[6.068,46.1929],[6.0677,46.192],[6.0681,46.193],[6.0658,46.1939],[6.0708,46.1979],[6.0719,46.2013],[6.0785,46.2018],[6.0864,46.2087],[6.0911,46.2106],[6.0932,46.2085],[6.0894,46.1987],[6.0867,46.1969],[6.0864,46.1951],[6.0879,46.1929],[6.0969,46.1917],[6.1101,46.2023],[6.1253,46.2002],[6.122,46.2014],[6.1328,46.203],[6.1357,46.2045],[6.1497,46.205],[6.148,46.207]],[[6.0265,46.195],[6.0267,46.1952],[6.0266,46.195],[6.0265,46.195]],[[5.9409,46.1297],[5.9446,46.1286],[5.9391,46.1294],[5.9409,46.1297]],[[5.9345,46.1285],[5.9354,46.1281],[5.9343,46.128],[5.9345,46.1285]],[[5.9341,46.1283],[5.9342,46.128],[5.9336,46.1282],[5.9341,46.1283]],[[5.9341,46.1293],[5.9339,46.1292],[5.9338,46.1292],[5.9341,46.1293]],[[5.9349,46.1293],[5.9361,46.13],[5.9375,46.1294],[5.9349,46.1293]],[[5.9271,46.1294],[5.9185,46.1316],[5.9259,46.1323],[5.9304,46.1296],[5.9271,46.1294]],[[5.9189,46.1278],[5.9185,46.1278],[5.9198,46.1281],[5.9189,46.1278]],[[5.9121,46.1244],[5.9141,46.1257],[5.9139,46.1247],[5.9121,46.1244]],[[5.8226,46.0937],[5.8228,46.0939],[5.8227,46.0937],[5.8226,46.0937]],[[6.1353,46.2045],[6.1352,46.2044],[6.1356,46.2046],[6.1353,46.2045]],[[6.1352,46.2045],[6.1351,46.2045],[6.1356,46.2048],[6.1352,46.2045]],[[6.1379,46.2049],[6.1402,46.2047],[6.1364,46.2045],[6.1379,46.2049]]],[[[6.1419,46.2049],[6.1445,46.2053],[6.1407,46.2047],[6.1419,46.2049]],[[6.1364,46.2044],[6.1367,46.2044],[6.1364,46.2044],[6.1364,46.2044]],[[6.1364,46.2044],[6.1367,46.2044],[6.1367,46.2044],[6.1364,46.2044]],[[6.1364,46.2043],[6.1367,46.2043],[6.1367,46.2043],[6.1364,46.2043]],[[6.1481,46.2061],[6.1476,46.2057],[6.1474,46.2062],[6.1481,46.2061]]]]},"properties":{"NOM":"Rhône"}},{"type":"Feature","geometry":{"type":"MultiPolygon","coordinates":[[[[6.6523,45.927],[6.648,45.9309],[6.6403,45.9428],[6.6336,45.9631],[6.6307,45.9661],[6.635,45.9788],[6.63,45.9811],[6.627,45.9848],[6.6296,45.9931],[6.6244,45.9951],[6.6237,45.9965],[6.624,46.0018],[6.6271,46.0055],[6.6267,46.007],[6.6156,46.0149],[6.6176,46.0209],[6.6139,46.022],[6.6111,46.0249],[6.6113,46.0273],[6.6152,46.0289],[6.618,46.036],[6.6144,46.0377],[6.6061,46.0376],[6.6054,46.0392],[6.6066,46.0412],[6.6041,46.0445],[6.5909,46.047],[6.5866,46.0489],[6.5825,46.0516],[6.5788,46.0573],[6.5638,46.0671],[6.5482,46.0731],[6.5315,46.0759],[6.5263,46.0755],[6.5188,46.0728],[6.5134,46.0735],[6.5103,46.0721],[6.5005,46.0735],[6.499,46.0711],[6.4934,46.0691],[6.4915,46.0689],[6.4906,46.0708],[6.4888,46.071],[6.489,46.0681],[6.4771,46.0715],[6.4309,46.0762],[6.4096,46.0755],[6.4066,46.076],[6.4027,46.0808],[6.3953,46.0856],[6.3814,46.0846],[6.3704,46.087],[6.3598,46.0926],[6.3582,46.0961],[6.36,46.0952],[6.3586,46.0966],[6.3591,46.0975],[6.3572,46.0982],[6.3584,46.0968],[6.3575,46.0964],[6.3557,46.0976],[6.3506,46.104],[6.3504,46.1059],[6.3524,46.1062],[6.3503,46.106],[6.3478,46.1083],[6.3486,46.1127],[6.3401,46.1165],[6.3401,46.1194],[6.3373,46.1212],[6.3352,46.1254],[6.3259,46.1346],[6.3172,46.1375],[6.3118,46.1343],[6.309,46.1347],[6.3098,46.1373],[6.303,46.1406],[6.3046,46.1428],[6.3034,46.1444],[6.3,46.1473],[6.2971,46.1473],[6.2928,46.1502],[6.2772,46.1531],[6.2729,46.1521],[6.2685,46.1492],[6.2651,46.15],[6.2627,46.1483],[6.2619,46.1514],[6.2572,46.1542],[6.2558,46.1579],[6.251,46.1599],[6.2484,46.1596],[6.2478,46.162],[6.2445,46.164],[6.2421,46.1639],[6.2463,46.17],[6.2466,46.1728],[6.2436,46.1751],[6.2375,46.1768],[6.2319,46.1832],[6.2268,46.185],[6.2235,46.1846],[6.2212,46.1826],[6.2182,46.1757],[6.2161,46.1747],[6.196,46.1753],[6.1908,46.1741],[6.1866,46.1785],[6.1836,46.1796],[6.1793,46.1798],[6.1741,46.1767],[6.1698,46.1763],[6.1718,46.179],[6.1715,46.1831],[6.1684,46.1873],[6.1645,46.1884],[6.162,46.1873],[6.1591,46.1788],[6.1565,46.1781],[6.1539,46.1807],[6.1549,46.1847],[6.1539,46.1864],[6.1431,46.1876],[6.1391,46.194],[6.1284,46.2],[6.1253,46.2001],[6.1383,46.1937],[6.1425,46.1871],[6.1534,46.186],[6.1529,46.1801],[6.1566,46.1775],[6.1599,46.1789],[6.163,46.1869],[6.1649,46.1879],[6.1684,46.1865],[6.1706,46.1834],[6.1712,46.1798],[6.1685,46.1772],[6.1695,46.1757],[6.1738,46.176],[6.1796,46.1793],[6.1842,46.179],[6.1911,46.1736],[6.1962,46.1748],[6.2154,46.174],[6.2204,46.176],[6.2209,46.1802],[6.2238,46.1843],[6.2308,46.183],[6.2372,46.1763],[6.2414,46.1737],[6.2457,46.173],[6.2454,46.1701],[6.2412,46.1636],[6.247,46.162],[6.2484,46.159],[6.2552,46.1576],[6.2568,46.1539],[6.2613,46.1514],[6.2626,46.1476],[6.2651,46.1492],[6.2693,46.1489],[6.2767,46.1526],[6.2928,46.1497],[6.2971,46.1468],[6.2995,46.1471],[6.3034,46.144],[6.3042,46.1426],[6.3027,46.1404],[6.3091,46.1371],[6.3086,46.1342],[6.3122,46.1339],[6.3178,46.1371],[6.3248,46.1349],[6.3309,46.1272],[6.3347,46.125],[6.3353,46.1218],[6.339,46.119],[6.3396,46.116],[6.3478,46.1126],[6.3473,46.1071],[6.3541,46.096],[6.3592,46.0918],[6.3719,46.086],[6.3828,46.0841],[6.3961,46.0848],[6.402,46.0808],[6.4061,46.0756],[6.4094,46.0748],[6.4278,46.0757],[6.4443,46.0741],[6.4421,46.0744],[6.4435,46.0744],[6.4756,46.0712],[6.4864,46.0678],[6.4996,46.0705],[6.5009,46.0731],[6.5034,46.0717],[6.5097,46.0717],[6.5063,46.0715],[6.5061,46.0701],[6.5091,46.0701],[6.5099,46.0717],[6.5111,46.0702],[6.5107,46.0717],[6.5142,46.0732],[6.5189,46.0725],[6.5271,46.0754],[6.5341,46.0754],[6.5506,46.0719],[6.5707,46.063],[6.5795,46.0563],[6.5819,46.0515],[6.5873,46.0476],[6.6038,46.0438],[6.6059,46.0419],[6.6048,46.0392],[6.6065,46.0372],[6.6152,46.0371],[6.6178,46.0356],[6.6149,46.0294],[6.6111,46.0275],[6.6107,46.0247],[6.6137,46.0217],[6.6171,46.0208],[6.615,46.0145],[6.6251,46.0085],[6.6267,46.0062],[6.624,46.0027],[6.6232,45.9964],[6.6293,45.9922],[6.6266,45.9846],[6.6295,45.981],[6.6347,45.9785],[6.6304,45.9659],[6.6356,45.9562],[6.6402,45.9424],[6.6479,45.9305],[6.6523,45.927]],[[6.3573,46.094],[6.3546,46.0972],[6.3573,46.0958],[6.3573,46.094]],[[6.2186,46.1756],[6.2199,46.1792],[6.22,46.1761],[6.2186,46.1756]],[[6.4892,46.0705],[6.4908,46.0686],[6.4888,46.0695],[6.4892,46.0705]],[[6.3751,46.0856],[6.375,46.0852],[6.3715,46.0863],[6.3751,46.0856]],[[6.2434,46.1748],[6.2439,46.1744],[6.241,46.175],[6.2434,46.1748]],[[6.3757,46.0857],[6.3784,46.0853],[6.3769,46.0851],[6.3757,46.0857]],[[6.3878,46.085],[6.3894,46.0846],[6.3858,46.0847],[6.3878,46.085]],[[6.4362,46.0756],[6.4351,46.0753],[6.4328,46.0756],[6.4362,46.0756]],[[6.3843,46.0848],[6.3834,46.0843],[6.3819,46.0845],[6.3843,46.0848]],[[6.4856,46.0686],[6.4865,46.0679],[6.4849,46.0688],[6.4856,46.0686]],[[6.354,46.0986],[6.3531,46.1003],[6.3538,46.1002],[6.354,46.0986]],[[6.1538,46.1832],[6.1537,46.1819],[6.1532,46.1813],[6.1538,46.1832]],[[6.3492,46.1057],[6.3497,46.104],[6.3491,46.1047],[6.3492,46.1057]],[[6.5029,46.0728],[6.5042,46.0722],[6.5023,46.0728],[6.5029,46.0728]],[[6.1704,46.1785],[6.1697,46.1785],[6.1711,46.1795],[6.1704,46.1785]],[[6.3554,46.0953],[6.3556,46.0948],[6.3547,46.0959],[6.3554,46.0953]],[[6.2509,46.1598],[6.2513,46.1595],[6.2497,46.1595],[6.2509,46.1598]],[[6.4103,46.075],[6.4089,46.0753],[6.4109,46.0751],[6.4103,46.075]],[[6.3505,46.1034],[6.3512,46.1028],[6.3507,46.1026],[6.3505,46.1034]],[[6.5618,46.0675],[6.563,46.0668],[6.5625,46.0669],[6.5618,46.0675]],[[6.2656,46.15],[6.2646,46.1494],[6.265,46.1499],[6.2656,46.15]],[[6.432,46.0756],[6.4308,46.0758],[6.4316,46.0758],[6.432,46.0756]]],[[[6.5876,46.0479],[6.5882,46.0477],[6.5872,46.0481],[6.5876,46.0479]],[[6.1705,46.1782],[6.1695,46.178],[6.1709,46.1784],[6.1705,46.1782]],[[6.4993,46.0711],[6.4997,46.0719],[6.4998,46.0715],[6.4993,46.0711]],[[6.398,46.0837],[6.3978,46.0835],[6.3977,46.084],[6.398,46.0837]],[[6.4946,46.0695],[6.4951,46.0697],[6.4944,46.0694],[6.4946,46.0695]],[[6.5451,46.0735],[6.5452,46.0733],[6.5448,46.0734],[6.5451,46.0735]],[[6.4334,46.0758],[6.4332,46.0758],[6.4338,46.0759],[6.4334,46.0758]],[[6.4215,46.0751],[6.4216,46.0751],[6.4208,46.075],[6.4215,46.0751]],[[6.2436,46.1749],[6.2435,46.1751],[6.2437,46.1749],[6.2436,46.1749]],[[6.2412,46.1753],[6.2411,46.1752],[6.241,46.1753],[6.2412,46.1753]]]]},"properties":{"NOM":"Arve"}},{"type":"Feature","geometry":{"type":"MultiPolygon","coordinates":[[[[6.5904,46.5185],[6.587,46.517],[6.5823,46.5183],[6.5789,46.5167],[6.5783,46.5176],[6.5769,46.5168],[6.5786,46.5166],[6.5763,46.5162],[6.5727,46.5132],[6.5655,46.5122],[6.5601,46.5079],[6.5561,46.5074],[6.5461,46.5083],[6.5354,46.5073],[6.535,46.5086],[6.5242,46.5143],[6.5163,46.5162],[6.512,46.5149],[6.5074,46.5158],[6.5014,46.5123],[6.502,46.5105],[6.5007,46.5086],[6.4956,46.5043],[6.4901,46.5027],[6.4889,46.5011],[6.4898,46.5025],[6.4875,46.5024],[6.4883,46.5013],[6.4867,46.5015],[6.4829,46.4976],[6.4819,46.492],[6.4769,46.4907],[6.4696,46.4909],[6.4632,46.4866],[6.4617,46.4849],[6.4626,46.4843],[6.4618,46.4847],[6.4611,46.4819],[6.4616,46.4785],[6.4549,46.4788],[6.4484,46.4738],[6.4209,46.4685],[6.4094,46.463],[6.4086,46.4611],[6.4024,46.459],[6.3914,46.4599],[6.391,46.4618],[6.3815,46.4652],[6.3732,46.4654],[6.3516,46.4608],[6.3459,46.4613],[6.3386,46.4567],[6.3367,46.454],[6.3368,46.4514],[6.3361,46.4536],[6.3349,46.4518],[6.3362,46.4515],[6.3349,46.4518],[6.3236,46.4446],[6.3192,46.4435],[6.3177,46.4411],[6.3186,46.4396],[6.3102,46.4337],[6.3069,46.4299],[6.2981,46.4265],[6.2955,46.4236],[6.291,46.4229],[6.2901,46.4139],[6.2817,46.4057],[6.283,46.4003],[6.2822,46.3971],[6.2781,46.3959],[6.2753,46.3917],[6.2703,46.3915],[6.274,46.3907],[6.2752,46.3917],[6.2741,46.3901],[6.2591,46.393],[6.2488,46.3878],[6.247,46.3863],[6.2469,46.3841],[6.2458,46.3846],[6.2466,46.3827],[6.2445,46.3832],[6.2414,46.3788],[6.2413,46.3801],[6.2351,46.3761],[6.2333,46.3715],[6.2257,46.3655],[6.2206,46.3631],[6.2196,46.3604],[6.2165,46.3589],[6.2157,46.356],[6.2134,46.3551],[6.2122,46.3518],[6.2074,46.3477],[6.2083,46.3427],[6.2068,46.3421],[6.208,46.34],[6.2034,46.336],[6.2028,46.3299],[6.1975,46.3193],[6.1862,46.3108],[6.1777,46.2998],[6.1706,46.2959],[6.1698,46.2921],[6.1724,46.2878],[6.1719,46.2889],[6.1702,46.2888],[6.1698,46.2867],[6.1719,46.2866],[6.1719,46.2876],[6.172,46.2867],[6.1694,46.2866],[6.1671,46.2816],[6.1713,46.2762],[6.1704,46.2764],[6.1714,46.2728],[6.1704,46.2735],[6.1705,46.2713],[6.1684,46.2691],[6.1663,46.2623],[6.1664,46.2639],[6.1621,46.2629],[6.1581,46.2591],[6.1566,46.2549],[6.1517,46.2513],[6.1516,46.248],[6.1539,46.2458],[6.1511,46.2393],[6.1502,46.2358],[6.1512,46.2334],[6.15,46.2324],[6.1507,46.231],[6.1501,46.2315],[6.149,46.2265],[6.1536,46.2212],[6.1516,46.2175],[6.1528,46.2127],[6.1545,46.2126],[6.1529,46.2127],[6.1531,46.2111],[6.157,46.21],[6.153,46.211],[6.148,46.2068],[6.1497,46.205],[6.154,46.2043],[6.1612,46.2077],[6.1594,46.208],[6.1626,46.2084],[6.1591,46.209],[6.164,46.2087],[6.1671,46.2121],[6.1678,46.211],[6.1665,46.2096],[6.173,46.2123],[6.1687,46.2156],[6.1717,46.2144],[6.1756,46.2153],[6.1826,46.2248],[6.1816,46.2245],[6.1906,46.2331],[6.1916,46.2355],[6.1905,46.2358],[6.1917,46.2356],[6.1932,46.2381],[6.1939,46.2429],[6.1915,46.2445],[6.194,46.251],[6.1927,46.253],[6.1983,46.264],[6.2102,46.2658],[6.2186,46.2737],[6.2212,46.2784],[6.2281,46.2859],[6.2355,46.2891],[6.2426,46.2984],[6.2406,46.304],[6.2486,46.3063],[6.253,46.311],[6.2542,46.3149],[6.2556,46.3154],[6.2582,46.32],[6.2563,46.3242],[6.2621,46.3278],[6.2619,46.3292],[6.2723,46.3386],[6.2768,46.3452],[6.2768,46.35],[6.2806,46.3512],[6.2945,46.3612],[6.3021,46.3641],[6.301,46.3653],[6.3021,46.3642],[6.3031,46.3655],[6.302,46.3659],[6.3086,46.3665],[6.3155,46.3689],[6.3214,46.369],[6.3244,46.3708],[6.3236,46.3717],[6.3306,46.3698],[6.3428,46.3703],[6.3508,46.3673],[6.3504,46.3621],[6.3525,46.3599],[6.3522,46.3587],[6.3569,46.3545],[6.357,46.3521],[6.3594,46.3496],[6.3818,46.3407],[6.3813,46.3422],[6.3899,46.3404],[6.39,46.3413],[6.3871,46.3411],[6.3915,46.341],[6.3989,46.3502],[6.4043,46.3511],[6.4131,46.3598],[6.4315,46.3602],[6.4693,46.3727],[6.4698,46.3739],[6.4767,46.3749],[6.4752,46.3761],[6.4773,46.3752],[6.4825,46.3824],[6.4827,46.3917],[6.4838,46.3931],[6.4923,46.3984],[6.5027,46.4011],[6.5054,46.403],[6.5049,46.4017],[6.5059,46.4021],[6.5051,46.4015],[6.5072,46.4006],[6.5067,46.4026],[6.5083,46.402],[6.5078,46.403],[6.51,46.4028],[6.5093,46.4036],[6.5108,46.4037],[6.511,46.4017],[6.5131,46.402],[6.5127,46.4039],[6.515,46.4024],[6.5142,46.4037],[6.5155,46.4039],[6.5138,46.4049],[6.5216,46.4039],[6.521,46.4027],[6.5221,46.4037],[6.5354,46.3975],[6.5452,46.3947],[6.5881,46.4023],[6.5942,46.4015],[6.6008,46.4026],[6.6007,46.4018],[6.6361,46.406],[6.6649,46.4046],[6.6796,46.4077],[6.6842,46.4069],[6.6902,46.4082],[6.7243,46.4079],[6.7356,46.405],[6.7569,46.4029],[6.7602,46.4005],[6.79,46.393],[6.8051,46.3943],[6.8062,46.3926],[6.811,46.3906],[6.8159,46.3904],[6.8292,46.3858],[6.8454,46.3886],[6.8526,46.3866],[6.8558,46.3874],[6.8536,46.3864],[6.8557,46.3853],[6.8576,46.386],[6.8562,46.387],[6.8582,46.3866],[6.8597,46.3885],[6.8576,46.3935],[6.8598,46.3917],[6.8577,46.3943],[6.8569,46.3934],[6.8579,46.3946],[6.8598,46.3938],[6.859,46.3948],[6.86,46.3949],[6.8666,46.3928],[6.8776,46.3955],[6.8899,46.3955],[6.8949,46.3942],[6.9002,46.3965],[6.9178,46.3936],[6.9199,46.3957],[6.9191,46.3972],[6.9202,46.397],[6.9192,46.3971],[6.9198,46.396],[6.9238,46.3974],[6.9254,46.4],[6.9251,46.4023],[6.9285,46.4044],[6.9308,46.4078],[6.9304,46.4116],[6.9272,46.4142],[6.9274,46.4183],[6.9234,46.4209],[6.9227,46.4258],[6.9187,46.4294],[6.9123,46.4287],[6.9087,46.4308],[6.9095,46.4346],[6.9049,46.4385],[6.9002,46.4406],[6.8902,46.439],[6.8863,46.4412],[6.8848,46.4408],[6.8862,46.4413],[6.885,46.4422],[6.8822,46.4411],[6.8789,46.4429],[6.8787,46.4451],[6.8734,46.4479],[6.8652,46.4485],[6.86,46.447],[6.8582,46.4505],[6.8551,46.4523],[6.8549,46.4511],[6.8517,46.4571],[6.8354,46.4605],[6.8332,46.467],[6.8313,46.4681],[6.8228,46.4677],[6.82,46.4697],[6.8111,46.4703],[6.8088,46.4691],[6.8079,46.47],[6.8091,46.4705],[6.789,46.4744],[6.7782,46.4741],[6.7613,46.4799],[6.7517,46.4863],[6.744,46.4894],[6.7359,46.4894],[6.7307,46.4867],[6.7222,46.4864],[6.7009,46.498],[6.6919,46.4995],[6.688,46.5015],[6.6842,46.5018],[6.6849,46.501],[6.6767,46.5043],[6.6682,46.5039],[6.6642,46.5059],[6.6595,46.506],[6.6434,46.5047],[6.6325,46.5072],[6.6284,46.5067],[6.629,46.5052],[6.6271,46.5045],[6.6262,46.5059],[6.6257,46.5047],[6.6259,46.5062],[6.6234,46.5078],[6.6214,46.5071],[6.6247,46.5056],[6.6185,46.5091],[6.6174,46.5082],[6.6205,46.5061],[6.6149,46.5102],[6.6078,46.5117],[6.6077,46.5126],[6.6049,46.5125],[6.6046,46.5112],[6.6018,46.5119],[6.5956,46.5166],[6.5904,46.5185]],[[6.6064,46.511],[6.6064,46.511],[6.6064,46.511],[6.6064,46.511]],[[6.4991,46.5064],[6.4991,46.5065],[6.4991,46.5065],[6.4991,46.5064]],[[6.499,46.5061],[6.499,46.5061],[6.499,46.5061],[6.499,46.5061]],[[6.6782,46.5027],[6.6777,46.5034],[6.6802,46.5022],[6.6782,46.5027]],[[6.4891,46.5007],[6.4882,46.5007],[6.4885,46.5008],[6.4891,46.5007]],[[6.4358,46.4706],[6.4357,46.4705],[6.4356,46.4706],[6.4358,46.4706]],[[6.4178,46.4671],[6.4178,46.4672],[6.4179,46.4671],[6.4178,46.4671]],[[6.3397,46.4549],[6.3392,46.4559],[6.3395,46.4559],[6.3397,46.4549]],[[6.3178,46.4396],[6.3177,46.4396],[6.3178,46.4396],[6.3178,46.4396]],[[6.318,46.4387],[6.3179,46.4388],[6.3181,46.4388],[6.318,46.4387]],[[6.883,46.4406],[6.8835,46.4405],[6.8828,46.4404],[6.883,46.4406]],[[6.513,46.4049],[6.5117,46.4026],[6.5114,46.4042],[6.5056,46.4031],[6.513,46.4049]],[[6.2791,46.3959],[6.2792,46.3958],[6.2792,46.3958],[6.2791,46.3959]],[[6.2735,46.3918],[6.2734,46.3916],[6.2728,46.3918],[6.2735,46.3918]],[[6.2742,46.3915],[6.2744,46.3915],[6.2746,46.3914],[6.2742,46.3915]],[[6.4794,46.379],[6.4767,46.3761],[6.4762,46.3759],[6.4794,46.379]],[[6.2111,46.3501],[6.211,46.3504],[6.2112,46.3503],[6.2111,46.3501]]],[[[6.2077,46.3454],[6.2076,46.3455],[6.2077,46.3451],[6.2077,46.3454]],[[6.1782,46.3005],[6.1782,46.3005],[6.1782,46.3004],[6.1782,46.3005]],[[6.1775,46.2998],[6.1773,46.2997],[6.1773,46.2997],[6.1775,46.2998]],[[6.2412,46.2987],[6.241,46.299],[6.2414,46.2995],[6.2412,46.2987]],[[6.1703,46.292],[6.1713,46.2917],[6.1713,46.2913],[6.1703,46.292]],[[6.2335,46.2883],[6.2339,46.2883],[6.2334,46.2882],[6.2335,46.2883]],[[6.2318,46.2873],[6.232,46.2872],[6.2319,46.2872],[6.2318,46.2873]]],[[[6.1696,46.2865],[6.1695,46.2865],[6.1696,46.2866],[6.1696,46.2865]],[[6.2296,46.2863],[6.2296,46.2863],[6.2294,46.2863],[6.2296,46.2863]],[[6.2278,46.2859],[6.2276,46.2857],[6.2276,46.2858],[6.2278,46.2859]],[[6.2268,46.2846],[6.2271,46.2847],[6.2268,46.2845],[6.2268,46.2846]],[[6.2255,46.2831],[6.2257,46.2831],[6.2255,46.2829],[6.2255,46.2831]],[[6.2208,46.2785],[6.2211,46.2784],[6.2208,46.2785],[6.2208,46.2785]],[[6.1702,46.272],[6.1708,46.2728],[6.1708,46.2713],[6.1702,46.272]],[[6.2171,46.2728],[6.2171,46.273],[6.2174,46.2731],[6.2171,46.2728]],[[6.2141,46.2704],[6.2142,46.2705],[6.2144,46.2704],[6.2141,46.2704]]],[[[6.1689,46.2691],[6.1688,46.2692],[6.1689,46.2691],[6.1689,46.2691]]],[[[6.1694,46.2687],[6.1692,46.2689],[6.1692,46.2684],[6.1694,46.2687]],[[6.2114,46.267],[6.2114,46.267],[6.2111,46.2669],[6.2114,46.267]],[[6.2105,46.2667],[6.2103,46.2669],[6.2107,46.2666],[6.2105,46.2667]],[[6.1942,46.2573],[6.1946,46.2578],[6.1941,46.2568],[6.1942,46.2573]],[[6.1944,46.2569],[6.1946,46.2564],[6.194,46.2563],[6.1944,46.2569]],[[6.1532,46.2445],[6.1529,46.2444],[6.1529,46.2444],[6.1532,46.2445]],[[6.1533,46.244],[6.1534,46.244],[6.1534,46.2439],[6.1533,46.244]],[[6.1534,46.242],[6.1535,46.2419],[6.1533,46.2418],[6.1534,46.242]],[[6.1932,46.2399],[6.1931,46.24],[6.1932,46.2401],[6.1932,46.2399]],[[6.1509,46.2366],[6.1509,46.2369],[6.1511,46.2368],[6.1509,46.2366]],[[6.152,46.2236],[6.1515,46.2242],[6.1519,46.2238],[6.152,46.2236]],[[6.1525,46.2179],[6.1522,46.218],[6.1526,46.2178],[6.1525,46.2179]],[[6.1524,46.2175],[6.1523,46.2176],[6.1524,46.2176],[6.1524,46.2175]],[[6.1672,46.2144],[6.1672,46.2144],[6.1688,46.2151],[6.1672,46.2144]],[[6.1674,46.2142],[6.1674,46.2142],[6.1674,46.2137],[6.1674,46.2142]],[[6.1678,46.2135],[6.1678,46.2134],[6.1662,46.2128],[6.1678,46.2135]],[[6.1664,46.2125],[6.1664,46.2125],[6.1669,46.212],[6.1664,46.2125]]],[[[6.1568,46.2101],[6.1566,46.2101],[6.157,46.21],[6.1568,46.2101]],[[6.156,46.2079],[6.1571,46.2063],[6.1558,46.2074],[6.156,46.2079]],[[6.8403,46.3874],[6.8402,46.3874],[6.8401,46.3874],[6.8403,46.3874]],[[6.6215,46.507],[6.6215,46.507],[6.6214,46.507],[6.6215,46.507]]]]},"properties":{"NOM":"Léman"}}]}